OBJECT_NAME,OBJECT_ID,EPOCH,MEAN_MOTION,ECCENTRICITY,INCLINATION,RA_OF_ASC_NODE,ARG_OF_PERICENTER,MEAN_ANOMALY,EPHEMERIS_TYPE,CLASSIFICATION_TYPE,NORAD_CAT_ID,ELEMENT_SET_NO,REV_AT_EPOCH,BSTAR,MEAN_MOTION_DOT,MEAN_MOTION_DDOT
ONEWEB-0158,2021-025N,2026-06-07T03:34:39.232416,13.13471484,.0001594,87.8952,322.2159,89.5283,270.6029,0,U,48054,999,25231,.12739288E-4,.17E-6,0
ONEWEB-0157,2021-025P,2026-06-07T04:11:11.987520,13.13469310,.00018608,87.8951,322.2165,107.2056,252.9277,0,U,48055,999,25225,-.63792492E-3,-.22E-5,0
ONEWEB-0162,2021-025Q,2026-06-07T03:36:52.477632,13.13468904,.00019717,87.8950,322.2223,94.0765,266.0590,0,U,48056,999,25222,.43010268E-3,.17E-5,0
ONEWEB-0155,2021-025R,2026-06-07T03:46:48.929664,13.13468756,.00016837,87.8952,322.2170,99.0152,261.1168,0,U,48057,999,25236,-.71656948E-4,-.13E-6,0
ONEWEB-0149,2021-025S,2026-06-07T04:18:30.725856,13.13469908,.0002067,87.8958,322.2161,94.3639,265.7727,0,U,48058,999,25217,-.91134179E-3,-.32E-5,0
ONEWEB-0148,2021-025T,2026-06-07T05:14:34.889568,13.13469415,.00023557,87.8949,322.2159,97.4330,262.7067,0,U,48059,999,25230,.85195108E-3,.324E-5,0
ONEWEB-0160,2021-025U,2026-06-07T03:49:15.479616,13.13469686,.00017231,87.8948,322.2236,69.7062,290.4252,0,U,48060,999,25224,-.24368666E-3,-.76E-6,0
ONEWEB-0163,2021-025V,2026-06-07T03:27:19.141920,13.13469986,.00018155,87.8954,322.2205,103.7459,256.3873,0,U,48061,999,25236,.68238457E-3,.262E-5,0
ONEWEB-0159,2021-025W,2026-06-07T05:04:49.788768,13.13470173,.00017763,87.8956,322.2006,102.5921,257.5407,0,U,48062,999,25229,.89694082E-3,.34E-5,0
ONEWEB-0164,2021-025X,2026-06-07T04:38:00.331296,13.13470009,.00017733,87.8955,322.2106,92.8019,267.3313,0,U,48063,999,25227,-.10756494E-3,-.27E-6,0
ONEWEB-0167,2021-025Y,2026-06-07T03:28:31.366272,13.13471389,.00013475,87.8945,322.2308,113.8025,246.3245,0,U,48064,999,25225,.85332404E-3,.324E-5,0
ONEWEB-0166,2021-025Z,2026-06-07T04:01:25.921632,13.13470757,.0001978,87.8956,322.1968,96.8680,263.2674,0,U,48065,999,25233,-.77574237E-3,-.271E-5,0
ONEWEB-0151,2021-025AA,2026-06-06T17:05:41.652096,13.13469669,.00016856,87.8946,322.3049,96.0575,264.0746,0,U,48066,999,25221,-.70323225E-3,-.244E-5,0
ONEWEB-0170,2021-025AB,2026-06-07T04:16:03.683424,13.13469736,.00014284,87.8946,322.2141,85.9772,274.1520,0,U,48067,999,25223,-.6915136E-3,-.24E-5,0
ONEWEB-0168,2021-025AC,2026-06-07T03:54:07.448544,13.13468945,.00018655,87.8954,322.2163,99.8915,260.2425,0,U,48068,999,25224,-.41903297E-3,-.14E-5,0
ONEWEB-0173,2021-025AD,2026-06-07T03:41:56.520096,13.13468893,.0001714,87.8950,322.2204,106.8175,253.3142,0,U,48069,999,25248,.10739722E-3,.52E-6,0
ONEWEB-0171,2021-025AE,2026-06-07T04:35:34.278144,13.13472203,.00017116,87.8959,322.2214,94.3864,265.7461,0,U,48070,999,25230,-.10530067E-2,-.372E-5,0
ONEWEB-0172,2021-025AF,2026-06-06T17:08:08.112192,13.13470661,.00016726,87.8951,322.3051,98.5629,261.5690,0,U,48071,999,25313,-.67047681E-3,-.232E-5,0
ONEWEB-0174,2021-025AG,2026-06-07T00:00:07.520256,13.13469291,.00019423,87.8952,322.2483,96.6116,263.5235,0,U,48072,999,25249,.10797758E-3,.52E-6,0
ONEWEB-0175,2021-025AH,2026-06-06T11:56:07.416384,13.13470585,.0001454,87.8954,322.3322,94.5026,265.6270,0,U,48073,999,25208,-.30012E-3,-.97E-6,0
ONEWEB-0177,2021-025AJ,2026-06-07T04:40:26.835456,13.13470899,.00019445,87.8949,322.2120,101.0422,259.0926,0,U,48074,999,25236,.14542014E-3,.66E-6,0
ONEWEB-0178,2021-025AK,2026-06-07T05:07:26.861376,13.13471804,.00015608,87.8942,322.2223,100.7152,259.4153,0,U,48075,999,25241,.82444163E-3,.314E-5,0
ONEWEB-0108,2021-025AL,2026-06-07T04:08:45.068640,13.13469519,.00019836,87.8958,322.2070,89.8092,270.3264,0,U,48076,999,25233,-.76299258E-3,-.266E-5,0
ONEWEB-0169,2021-025AM,2026-06-07T04:55:04.443456,13.13469939,.00019142,87.8949,322.2099,96.2992,263.8355,0,U,48077,999,25099,.65140978E-3,.251E-5,0
ONEWEB-0176,2021-031A,2026-06-06T16:11:37.627584,13.14502211,.00017247,87.8947,291.7949,101.1405,258.9918,0,U,48210,999,24693,.52870668E-3,.209E-5,0
ONEWEB-0184,2021-031B,2026-06-07T02:30:27.076320,13.14502066,.00011538,87.8964,291.7095,116.4148,243.7100,0,U,48211,999,24696,-.39623372E-3,-.134E-5,0
ONEWEB-0179,2021-031C,2026-06-06T15:15:48.987360,14.25516351,.0218832,87.8980,289.5125,291.9898,65.8172,0,U,48212,999,24754,.5798E-4,.192E-5,0
ONEWEB-0180,2021-031D,2026-06-07T02:35:01.504320,13.14502387,.00019708,87.8958,291.7051,113.7298,246.4039,0,U,48213,999,24689,.6703146E-5,.15E-6,0
ONEWEB-0218,2021-031E,2026-06-07T03:06:59.614560,13.14501221,.00013818,87.8961,291.6996,126.3440,233.7818,0,U,48214,999,24705,.50865763E-3,.201E-5,0
ONEWEB-0209,2021-031F,2026-06-07T02:50:59.721792,13.14504676,.00020007,87.8951,291.7198,106.0563,254.0787,0,U,48215,999,24705,.52488619E-3,.207E-5,0
